NORAD_CAT_ID,OBJECT_NAME,OBJECT_TYPE,EPOCH,MEAN_MOTION,ECCENTRICITY,INCLINATION,RA_OF_ASC_NODE,ARG_OF_PERICENTER,MEAN_ANOMALY,BSTAR,MEAN_MOTION_DOT,MEAN_MOTION_DDOT,TLE_LINE0,TLE_LINE1,TLE_LINE2,SEMIMAJOR_AXIS,PERIOD,APOGEE,PERIGEE,DECAYED
52112.0,STARLINK-3734,PAYLOAD,2024-01-18 22:00:46,15.08836557,0.0001672,53.2176,344.1395,109.1784,250.9389,4.1242e-05,3.68e-06,0.0,0 STARLINK-3734,1 52112U 22029AA  24018.91720624  .00000368  00000-0  41242-4 0  9996,2 52112  53.2176 344.1395 0001672 109.1784 250.9389 15.08836557102919,6917.891,95.438,540.913,538.599,0.0
52112.0,STARLINK-3734,PAYLOAD,2024-01-19 07:33:04,15.08850817,0.0001521,53.2174,342.3555,104.9227,255.1934,6.0323e-05,6.72e-06,0.0,0 STARLINK-3734,1 52112U 22029AA  24019.31463615  .00000672  00000-0  60323-4 0  9994,2 52112  53.2174 342.3555 0001521 104.9227 255.1934 15.08850817102977,6917.847,95.437,540.765,538.66,0.0
52112.0,STARLINK-3734,PAYLOAD,2024-01-19 21:51:33,15.08838748,0.0001701,53.2185,339.677,100.3264,259.792,5.6823e-05,6.16e-06,0.0,0 STARLINK-3734,1 52112U 22029AA  24019.91080524  .00000616  00000-0  56823-4 0  9992,2 52112  53.2185 339.6770 0001701 100.3264 259.7920 15.08838748103063,6917.884,95.438,540.926,538.572,0.0
52112.0,STARLINK-3734,PAYLOAD,2024-01-20 02:37:42,15.08842179,0.0001676,53.2184,338.7841,112.0413,248.0758,7.7618e-05,9.48e-06,0.0,0 STARLINK-3734,1 52112U 22029AA  24020.10952175  .00000948  00000-0  77618-4 0  9998,2 52112  53.2184 338.7841 0001676 112.0413 248.0758 15.08842179103094,6917.874,95.437,540.898,538.579,0.0
52112.0,STARLINK-3734,PAYLOAD,2024-01-20 04:13:05,15.08843592,0.0001662,53.2185,338.4867,111.4488,248.6682,9.0147e-05,1.147e-05,0.0,0 STARLINK-3734,1 52112U 22029AA  24020.17576082  .00001147  00000-0  90147-4 0  9998,2 52112  53.2185 338.4867 0001662 111.4488 248.6682 15.08843592103104,6917.869,95.437,540.884,538.585,0.0
52112.0,STARLINK-3734,PAYLOAD,2024-01-20 21:42:21,15.08836186,0.0001459,53.2174,335.2216,101.8922,258.2233,-1.2329e-05,-4.84e-06,0.0,0 STARLINK-3734,1 52112U 22029AA  24020.90441182 -.00000484  00000-0 -12329-4 0  9992,2 52112  53.2174 335.2216 0001459 101.8922 258.2233 15.08836186103217,6917.892,95.438,540.766,538.748,0.0
52112.0,STARLINK-3734,PAYLOAD,2024-01-21 02:28:30,15.08837205,0.0001473,53.2173,334.3295,101.5005,258.6152,-8.8114e-06,-4.28e-06,0.0,0 STARLINK-3734,1 52112U 22029AA  24021.10313123 -.00000428  00000-0 -88114-5 0  9992,2 52112  53.2173 334.3295 0001473 101.5005 258.6152 15.08837205103248,6917.889,95.438,540.773,538.735,0.0
52112.0,STARLINK-3734,PAYLOAD,2024-01-21 05:39:17,15.08797311,0.0001803,53.2185,333.7313,95.5767,264.543,0.00068748,0.00010657,0.0,0 STARLINK-3734,1 52112U 22029AA  24021.23562147  .00010657  00000-0  68748-3 0  9990,2 52112  53.2185 333.7313 0001803  95.5767 264.5430 15.08797311103269,6918.011,95.44,541.123,538.629,0.0
52112.0,STARLINK-3734,PAYLOAD,2024-01-22 03:54:40,15.08842526,0.0001747,53.2195,329.5751,64.2716,295.8456,0.00010354,1.36e-05,0.0,0 STARLINK-3734,1 52112U 22029AA  24022.16296803  .00001360  00000-0  10354-3 0  9997,2 52112  53.2195 329.5751 0001747  64.2716 295.8456 15.08842526103403,6917.873,95.437,540.946,538.529,0.0
52112.0,STARLINK-3734,PAYLOAD,2024-01-22 05:30:02,15.08853738,0.000141,53.2181,329.2729,107.5616,252.553,0.00013306,1.831e-05,0.0,0 STARLINK-3734,1 52112U 22029AA  24022.22919739  .00001831  00000-0  13306-3 0  9997,2 52112  53.2181 329.2729 0001410 107.5616 252.5530 15.08853738103418,6917.838,95.437,540.679,538.728,0.0
52112.0,STARLINK-3734,PAYLOAD,2024-01-23 03:45:27,15.0884223,0.0001663,53.2195,325.1125,74.1067,286.0109,6.2302e-05,7.04e-06,0.0,0 STARLINK-3734,1 52112U 22029AA  24023.15656923  .00000704  00000-0  62302-4 0  9992,2 52112  53.2195 325.1125 0001663  74.1067 286.0109 15.08842230103551,6917.874,95.437,540.889,538.588,0.0
52112.0,STARLINK-3734,PAYLOAD,2024-01-24 02:00:51,15.0884978,0.0001796,53.2195,320.9482,70.1558,289.9627,-1.1753e-06,-3.07e-06,0.0,0 STARLINK-3734,1 52112U 22029AA  24024.08392660 -.00000307  00000-0 -11753-5 0  9996,2 52112  53.2195 320.9482 0001796  70.1558 289.9627 15.08849780103697,6917.85,95.437,540.958,538.473,0.0
52112.0,STARLINK-3734,PAYLOAD,2024-01-24 22:40:52,15.08840429,0.000161,53.2182,317.0895,108.8566,251.2601,-3.6586e-05,-8.7e-06,0.0,0 STARLINK-3734,1 52112U 22029AA  24024.94505234 -.00000870  00000-0 -36586-4 0  9999,2 52112  53.2182 317.0895 0001610 108.8566 251.2601 15.08840429103821,6917.879,95.438,540.858,538.63,0.0
52112.0,STARLINK-3734,PAYLOAD,2024-01-25 01:51:38,15.08837967,0.0001462,53.2173,316.4945,87.463,272.6529,-3.374e-05,-8.25e-06,0.0,0 STARLINK-3734,1 52112U 22029AA  24025.07753445 -.00000825  00000-0 -33740-4 0  9992,2 52112  53.2173 316.4945 0001462  87.4630 272.6529 15.08837967103840,6917.887,95.438,540.763,538.74,0.0
52112.0,STARLINK-3734,PAYLOAD,2024-01-25 22:31:39,15.088437,0.0001442,53.2183,312.6191,102.6622,257.4531,-7.9789e-05,-1.558e-05,0.0,0 STARLINK-3734,1 52112U 22029AA  24025.93865258 -.00001558  00000-0 -79789-4 0  9990,2 52112  53.2183 312.6191 0001442 102.6622 257.4531 15.08843700103971,6917.869,95.437,540.732,538.737,0.0
52112.0,STARLINK-3734,PAYLOAD,2024-01-26 01:42:25,15.08845384,0.0001546,53.2187,312.0252,101.5941,258.5224,-2.7154e-05,-7.2e-06,0.0,0 STARLINK-3734,1 52112U 22029AA  24026.07112973 -.00000720  00000-0 -27154-4 0  9994,2 52112  53.2187 312.0252 0001546 101.5941 258.5224 15.08845384103997,6917.864,95.437,540.798,538.659,0.0
52112.0,STARLINK-3734,PAYLOAD,2024-01-26 23:57:49,15.08835425,0.0001631,53.2188,307.8648,107.3863,252.7307,7.2569e-05,8.67e-06,0.0,0 STARLINK-3734,1 52112U 22029AA  24026.99849524  .00000867  00000-0  72569-4 0  9994,2 52112  53.2188 307.8648 0001631 107.3863 252.7307 15.08835425104131,6917.894,95.438,540.888,538.631,0.0
52112.0,STARLINK-3734,PAYLOAD,2024-01-27 22:13:13,15.08842696,0.000158,53.2188,303.7032,105.3893,254.7273,6.56e-05,7.56e-06,0.0,0 STARLINK-3734,1 52112U 22029AA  24027.92585268  .00000756  00000-0  65600-4 0  9995,2 52112  53.2188 303.7032 0001580 105.3893 254.7273 15.08842696104274,6917.872,95.437,540.83,538.644,0.0
52112.0,STARLINK-3734,PAYLOAD,2024-01-28 01:23:59,15.08845778,0.0001593,53.2188,303.1095,104.6172,255.4997,8.9624e-05,1.139e-05,0.0,0 STARLINK-3734,1 52112U 22029AA  24028.05832988  .00001139  00000-0  89624-4 0  9992,2 52112  53.2188 303.1095 0001593 104.6172 255.4997 15.08845778104290,6917.863,95.437,540.83,538.626,0.0
52112.0,STARLINK-3734,PAYLOAD,2024-01-28 22:04:01,15.08834571,0.0001602,53.2189,299.2446,102.4296,257.6876,1.5855e-05,-3.6e-07,0.0,0 STARLINK-3734,1 52112U 22029AA  24028.91946131 -.00000036  00000-0  15855-4 0  9994,2 52112  53.2189 299.2446 0001602 102.4296 257.6876 15.08834571104424,6917.897,95.438,540.87,538.654,0.0
52112.0,STARLINK-3734,PAYLOAD,2024-01-29 01:14:47,15.08835665,0.0001521,53.2186,298.6471,102.5895,257.5267,1.2349e-05,-9.1e-07,0.0,0 STARLINK-3734,1 52112U 22029AA  24029.05194056 -.00000091  00000-0  12349-4 0  9997,2 52112  53.2186 298.6471 0001521 102.5895 257.5267 15.08835665104448,6917.894,95.438,540.811,538.706,0.0
52112.0,STARLINK-3734,PAYLOAD,2024-01-29 04:25:33,15.08836005,0.0001548,53.2186,298.0509,104.9244,255.1919,1.68e-05,-2.1e-07,0.0,0 STARLINK-3734,1 52112U 22029AA  24029.18442035 -.00000021  00000-0  16800-4 0  9993,2 52112  53.2186 298.0509 0001548 104.9244 255.1919 15.08836005104466,6917.893,95.438,540.828,538.687,0.0
52112.0,STARLINK-3734,PAYLOAD,2024-01-30 01:05:33,15.08852522,0.0001775,53.2184,294.1876,114.2793,245.8384,1.0881e-05,-1.15e-06,0.0,0 STARLINK-3734,1 52112U 22029AA  24030.04552810 -.00000115  00000-0  10881-4 0  9990,2 52112  53.2184 294.1876 0001775 114.2793 245.8384 15.08852522104591,6917.842,95.437,540.935,538.479,0.0
52112.0,STARLINK-3734,PAYLOAD,2024-01-30 16:59:25,15.08820557,0.0001557,53.2179,291.2164,78.8582,281.2585,0.00025323,3.742e-05,0.0,0 STARLINK-3734,1 52112U 22029AA  24030.70793870  .00003742  00000-0  25323-3 0  9990,2 52112  53.2179 291.2164 0001557  78.8582 281.2585 15.08820557104693,6917.94,95.439,540.882,538.728,0.0
52112.0,STARLINK-3734,PAYLOAD,2024-01-30 21:45:35,15.08834259,0.0001366,53.2182,290.322,99.8785,260.2361,-1.2508e-05,-4.87e-06,0.0,0 STARLINK-3734,1 52112U 22029AA  24030.90666176 -.00000487  00000-0 -12508-4 0  9997,2 52112  53.2182 290.3220 0001366  99.8785 260.2361 15.08834259104723,6917.898,95.438,540.708,538.818,0.0
52112.0,STARLINK-3734,PAYLOAD,2024-01-31 02:31:44,15.08833084,0.0001691,53.2182,289.4302,65.7525,294.3644,0.0001138,1.523e-05,0.0,0 STARLINK-3734,1 52112U 22029AA  24031.10538055  .00001523  00000-0  11380-3 0  9990,2 52112  53.2182 289.4302 0001691  65.7525 294.3644 15.08833084104758,6917.902,95.438,540.936,538.597,0.0
52112.0,STARLINK-3734,PAYLOAD,2024-01-31 16:50:11,15.08887558,0.0001768,53.2176,286.752,74.6928,285.4259,-0.00070825,-0.00011557,0.0,0 STARLINK-3734,1 52112U 22029AA  24031.70152521 -.00011557  00000-0 -70825-3 0  9995,2 52112  53.2176 286.7520 0001768  74.6928 285.4259 15.08887558104842,6917.735,95.435,540.823,538.377,0.0
52112.0,STARLINK-3734,PAYLOAD,2024-01-31 23:11:45,15.0886304,0.0001607,53.2176,285.5637,74.4032,285.7137,-0.0002795,-4.736e-05,0.0,0 STARLINK-3734,1 52112U 22029AA  24031.96649822 -.00004736  00000-0 -27950-3 0  9990,2 52112  53.2176 285.5637 0001607  74.4032 285.7137 15.08863040104886,6917.81,95.436,540.787,538.563,0.0
52112.0,STARLINK-3734,PAYLOAD,2024-02-01 19:51:46,15.08837663,0.0001569,53.2176,281.6998,82.2238,277.8932,7.6163e-05,9.24e-06,0.0,0 STARLINK-3734,1 52112U 22029AA  24032.82761832  .00000924  00000-0  76163-4 0  9996,2 52112  53.2176 281.6998 0001569  82.2238 277.8932 15.08837663105018,6917.888,95.438,540.838,538.667,0.0
52112.0,STARLINK-3734,PAYLOAD,2024-02-02 21:17:56,15.08836635,0.0001471,53.2176,276.9434,81.4711,278.6448,7.5751e-06,-1.67e-06,0.0,0 STARLINK-3734,1 52112U 22029AA  24033.88746282 -.00000167  00000-0  75751-5 0  9998,2 52112  53.2176 276.9434 0001471  81.4711 278.6448 15.08836635105175,6917.891,95.438,540.773,538.738,0.0
